{
    "links": {
        "self": "http://www.neowsapp.com/rest/v1/neo/3273523?api_key=iIulBulltgU6a56xZRHN4H3l9WmuAYTsLGpBGhQ2"
    },
    "id": "3273523",
    "neo_reference_id": "3273523",
    "name": "(2005 EO30)",
    "designation": "2005 EO30",
    "nasa_jpl_url": "http://ssd.jpl.nasa.gov/sbdb.cgi?sstr=3273523",
    "absolute_magnitude_h": 23.0,
    "estimated_diameter": {
        "kilometers": {
            "estimated_diameter_min": 0.0667659413,
            "estimated_diameter_max": 0.1492931834
        },
        "meters": {
            "estimated_diameter_min": 66.7659413495,
            "estimated_diameter_max": 149.2931834393
        },
        "miles": {
            "estimated_diameter_min": 0.0414864197,
            "estimated_diameter_max": 0.0927664547
        },
        "feet": {
            "estimated_diameter_min": 219.0483710172,
            "estimated_diameter_max": 489.807047955
        }
    },
    "is_potentially_hazardous_asteroid": false,
    "close_approach_data": [
        {
            "close_approach_date": "2001-02-18",
            "close_approach_date_full": "2001-Feb-18 02:56",
            "epoch_date_close_approach": 982464960000,
            "relative_velocity": {
                "kilometers_per_second": "17.1211020518",
                "kilometers_per_hour": "61635.9673865585",
                "miles_per_hour": "38298.1931797202"
            },
            "miss_distance": {
                "astronomical": "0.4856007448",
                "lunar": "188.8986897272",
                "kilometers": "72644837.092493576",
                "miles": "45139408.6270843088"
            },
            "orbiting_body": "Earth"
        },
        {
            "close_approach_date": "2005-03-07",
            "close_approach_date_full": "2005-Mar-07 15:30",
            "epoch_date_close_approach": 1110209400000,
            "relative_velocity": {
                "kilometers_per_second": "8.1092734366",
                "kilometers_per_hour": "29193.3843716033",
                "miles_per_hour": "18139.6337502331"
            },
            "miss_distance": {
                "astronomical": "0.0616654322",
                "lunar": "23.9878531258",
                "kilometers": "9225017.309749414",
                "miles": "5732159.9524893532"
            },
            "orbiting_body": "Earth"
        },
        {
            "close_approach_date": "2009-03-28",
            "close_approach_date_full": "2009-Mar-28 14:35",
            "epoch_date_close_approach": 1238250900000,
            "relative_velocity": {
                "kilometers_per_second": "12.0728744561",
                "kilometers_per_hour": "43462.3480421256",
                "miles_per_hour": "27005.812870953"
            },
            "miss_distance": {
                "astronomical": "0.3606090439",
                "lunar": "140.2769180771",
                "kilometers": "53946344.870176493",
                "miles": "33520704.3266138834"
            },
            "orbiting_body": "Earth"
        }
    ],
    "orbital_data": {
        "orbit_id": "7",
        "orbit_determination_date": "2017-04-06 09:11:23",
        "first_observation_date": "2005-03-04",
        "last_observation_date": "2005-03-15",
        "data_arc_in_days": 11,
        "observations_used": 23,
        "orbit_uncertainty": "8",
        "minimum_orbit_intersection": ".0378201",
        "jupiter_tisserand_invariant": "5.178",
        "epoch_osculation": "2453437.5",
        "eccentricity": ".1606078338683103",
        "semi_major_axis": "1.224784085829693",
        "inclination": "13.98586407967873",
        "ascending_node_longitude": "347.730569551029",
        "orbital_period": "495.0940750091102",
        "perihelion_distance": "1.028074166848207",
        "perihelion_argument": "191.7916127870693",
        "aphelion_distance": "1.421494004811178",
        "perihelion_time": "2453446.624542552433",
        "mean_anomaly": "353.3652299942886",
        "mean_motion": ".7271345349737334",
        "equinox": "J2000",
        "orbit_class": {
            "orbit_class_type": "AMO",
            "orbit_class_description": "Near-Earth asteroid orbits similar to that of 1221 Amor",
            "orbit_class_range": "1.017 AU < q (perihelion) < 1.3 AU"
        }
    },
    "is_sentry_object": false
}